STARLINK-3273           
1 50191U 21125AM  23166.07750743  .00002873  00000+0  19843-3 0  9995
2 50191  53.2173  62.0632 0000916  86.2194 273.8903 15.08857218 82618
STARLINK-3259           
1 50192U 21125AN  23165.66720798  .00000323  00000+0  38385-4 0  9998
2 50192  53.2186  43.9030 0001268  90.5162 269.5975 15.08837166 85914
STARLINK-3261           
1 50193U 21125AP  23165.67824950 -.00000300  00000+0 -74813-6 0  9990
2 50193  53.2184  43.8555 0000982  97.8231 262.2872 15.08834607 85961
STARLINK-3269           
1 50194U 21125AQ  23166.06192233 -.00001167  00000+0 -55271-4 0  9994
2 50194  53.2179  42.1434 0000850 128.0376 232.0693 15.08834814 85499
STARLINK-3266           
1 50195U 21125AR  23166.07200850 -.00000237  00000+0  31803-5 0  9993
2 50195  53.2181  42.0891 0001257  85.7384 274.3752 15.08837867 85495
STARLINK-3263           
1 50196U 21125AS  23166.05824994  .00002446  00000+0  17174-3 0  9999
2 50196  53.2182  42.2012 0001257  93.3496 266.7640 15.08833999 85496
STARLINK-3267           
1 50197U 21125AT  23165.06368894 -.00000346  00000+0 -36861-5 0  9997
2 50197  53.2190  46.6138 0000993  88.7483 271.3623 15.08837972 85873
STARLINK-3264           
1 50198U 21125AU  23165.77761160  .00000799  00000+0  68294-4 0  9993
2 50198  53.2179  43.4099 0001050  85.2347 274.8765 15.08831357 85931
STARLINK-3270           
1 50199U 21125AV  23166.02415793  .00001134  00000+0  89301-4 0  9997
2 50199  53.2183  42.3065 0001373  96.2216 263.8933 15.08848754 85487
STARLINK-3235           
1 50200U 21125AW  23165.65344770  .00000771  00000+0  66521-4 0  9999
2 50200  53.2185  43.9759 0001227  89.4308 270.6825 15.08835540 85927
STARLINK-3255           
1 50201U 21125AX  23166.03984877  .00000383  00000+0  42159-4 0  9991
2 50201  53.2177  42.2431 0001083  81.3756 278.7359 15.08835278 85497
STARLINK-3256           
1 50202U 21125AY  23166.08672523  .00000247  00000+0  33589-4 0  9995
2 50202  53.2173  42.0223 0001057  89.1555 270.9558 15.08840715 85492
STARLINK-3257           
1 50203U 21125AZ  23166.04625336  .00002070  00000+0  14813-3 0  9996
2 50203  53.2186  42.2039 0001216  86.0829 274.0302 15.08829805 82891
STARLINK-3254           
1 50204U 21125BA  23166.02880413  .00000874  00000+0  72964-4 0  9996
2 50204  53.2171  42.2920 0000914  91.4847 268.6250 15.08841669 82892
STARLINK-3260           
1 50205U 21125BB  23165.96900253  .00000267  00000+0  34858-4 0  9990
2 50205  53.2174  12.5487 0000929 104.2340 255.8756 15.08843614 85918
STARLINK-3258           
1 50206U 21125BC  23166.03153035  .00000257  00000+0  34229-4 0  9999
2 50206  53.2177  42.2681 0000996  98.7286 261.3819 15.08832398 83892
STARLINK-3262           
1 50207U 21125BD  23165.04160518  .00000066  00000+0  22223-4 0  9993
2 50207  53.2177  46.7153 0001038  90.7115 269.3996 15.08841565 83819
TURKSAT 5B              
1 50212U 21126A   23165.89986078  .00000149  00000+0  00000+0 0  9996
2 50212   0.0642 344.7438 0003451  14.2534 269.8725  1.00270998  5289
INMARSAT 6-F1           
1 50319U 21128A   23165.79787397 -.00000169  00000+0  00000+0 0  9991
2 50319   0.0386  84.8607 0000333  99.2020  89.7396  1.00270284  5248
SHIYAN 12 01 (SY-12 01) 
1 50321U 21129A   23165.94971353 -.00000159  00000+0  00000+0 0  9998
2 50321   0.8352  99.4212 0000579  84.0035 219.4449  1.00114426  5488
SHIYAN 12 02 (SY-12 02) 
1 50322U 21129B   23165.93590896  .00000136  00000+0  00000+0 0  9991
2 50322   0.8356  99.4629 0000753  15.1364 153.2056  1.00067050  5488
ZY-1 02E                
1 50465U 21131A   23166.10399180  .00000108  00000+0  53029-4 0  9998
2 50465  98.5404 244.3867 0001166  97.3997 262.7321 14.35350323 76896
XW-3 (CAS-9)            
1 50466U 21131B   23166.15319918  .00000555  00000+0  19443-3 0  9992
2 50466  98.5519 247.7043 0005192 136.0495 224.1106 14.38919817 77069
ONEWEB-0389             
1 50469U 21132A   23166.08519753  .00000087  00000+0  19098-3 0  9993
2 50469  87.9176 223.9925 0002329 112.0325 248.1054 13.17650753 74762
ONEWEB-0390             
1 50470U 21132B   23165.55589378  .00001642  00000+0  41968-2 0  9994
2 50470  87.9177 224.1023 0002415 103.2871 256.8530 13.17642586 74693
ONEWEB-0391             
1 50471U 21132C   23166.08968242  .00000128  00000+0  29650-3 0  9998
2 50471  87.9179 223.9677 0002249 104.9962 255.1418 13.17647756 74761
ONEWEB-0392             
1 50472U 21132D   23165.58715397  .00000015  00000+0  51204-5 0  9991
2 50472  87.9182 224.1038 0002100 106.9919 253.1443 13.17646928 73440
ONEWEB-0393             
1 50473U 21132E   23166.12876577  .00000097  00000+0  21588-3 0  9991
2 50473  87.9173 223.9685 0001897 103.5765 256.5578 13.17651228 74794
ONEWEB-0394             
1 50474U 21132F   23166.08898530  .00000061  00000+0  12250-3 0  9997
2 50474  87.9238 193.7087 0002295  96.1816 263.9577 13.18688359 78144
ONEWEB-0395             
1 50475U 21132G   23165.18742862  .00000398  00000+0  10868-2 0  9999
2 50475  87.8912 239.3932 0001944 107.4027 252.7313 13.11419137 71673
ONEWEB-0396             
1 50476U 21132H   23165.77916545  .00000009  00000+0 -11169-4 0  9993
2 50476  87.9238 193.7619 0002384  95.8991 264.2413 13.18686859 76870
ONEWEB-0397             
1 50477U 21132J   23166.09741529  .00000078  00000+0  16394-3 0  9997
2 50477  87.9237 193.6995 0002430  97.2930 262.8478 13.18687569 78165
ONEWEB-0398             
1 50478U 21132K   23165.15561760 -.00000669  00000+0 -19246-2 0  9997
2 50478  87.8913 239.3930 0001661 113.7518 246.3784 13.11416984 71562
ONEWEB-0399             
1 50479U 21132L   23165.90588196 -.00000050  00000+0 -17676-3 0  9993
2 50479  87.8911 239.2559 0002371  94.6944 265.4455 13.11414482 72936
ONEWEB-0400             
1 50480U 21132M   23166.07635363  .00000049  00000+0  90348-4 0  9997
2 50480  87.9245 193.7511 0001869  94.4436 265.6909 13.18687777 78169
ONEWEB-0401             
1 50481U 21132N   23166.11851119  .00000083  00000+0  17710-3 0  9991
2 50481  87.9239 193.7034 0002545  87.7077 272.4346 13.18686522 78170
ONEWEB-0402             
1 50482U 21132P   23166.08477512  .00000093  00000+0  20265-3 0  9999
2 50482  87.9245 193.7506 0002471  77.4835 282.6573 13.18684647 78191
ONEWEB-0403             
1 50483U 21132Q   23166.10795717  .00000089  00000+0  19210-3 0  9996
2 50483  87.9218 193.7309 0002440  94.4941 265.6470 13.18688203 78151
ONEWEB-0404             
1 50484U 21132R   23166.11570271  .00000628  00000+0  17352-2 0  9997
2 50484  87.8910 239.1712 0002709 110.4803 249.6616 13.11417735 73047
ONEWEB-0405             
1 50485U 21132S   23165.77178800  .00000020  00000+0  17983-4 0  9999
2 50485  87.9240 193.7709 0002651  85.5639 274.5796 13.18689386 77221
ONEWEB-0406             
1 50486U 21132T   23166.11217134  .00000077  00000+0  16135-3 0  9992
2 50486  87.9239 193.7057 0002481 103.1228 257.0181 13.18684500 78192
ONEWEB-0407             
1 50487U 21132U   23166.10584018  .00000111  00000+0  24838-3 0  9998
2 50487  87.9239 193.7138 0002360  93.0289 267.1114 13.18687727 78139
ONEWEB-0409             
1 50488U 21132V   23165.19802302  .00000615  00000+0  16986-2 0  9999
2 50488  87.8919 239.3641 0002253 117.6534 242.4823 13.11416700 71542
ONEWEB-0412             
1 50489U 21132W   23166.09533056  .00000073  00000+0  15155-3 0  9993
2 50489  87.9243 193.7432 0002754  84.6382 275.5064 13.18684809 78214
ONEWEB-0413             
1 50490U 21132X   23166.09951668 -.00000175  00000+0 -47717-3 0  9992
2 50490  87.9155 193.7250 0002459  84.3193 275.8219 13.18685455 78162
ONEWEB-0414             
1 50491U 21132Y   23166.08582303 -.00000063  00000+0 -19362-3 0  9999
2 50491  87.9156 193.7570 0002585  92.5911 267.5517 13.18691087 78198
ONEWEB-0417             
1 50492U 21132Z   23166.09321623  .00000126  00000+0  28621-3 0  9993
2 50492  87.9246 193.7558 0002135 102.1779 257.9592 13.18687680 78174
ONEWEB-0418             
1 50493U 21132AA  23166.10690792  .00000126  00000+0  28810-3 0  9992
2 50493  87.9242 193.6995 0002359 108.7129 251.4260 13.18686306 78225
ONEWEB-0419             
1 50494U 21132AB  23166.12061217  .00000124  00000+0  28212-3 0  9993
2 50494  87.9249 193.7192 0001816 102.8244 257.3091 13.18687794 78154
ONEWEB-0420             
1 50495U 21132AC  23166.08689866  .00000253  00000+0  60941-3 0  9993
2 50495  87.9245 193.7361 0001823  82.7679 277.3661 13.18686600 78155
ONEWEB-0421             
1 50496U 21132AD  23166.08055427  .00000107  00000+0  23759-3 0  9998
2 50496  87.9244 193.7443 0002652  88.0395 272.1040 13.18687744 78199
ONEWEB-0424             
1 50497U 21132AE  23166.11638796  .00000132  00000+0  30251-3 0  9992
2 50497  87.9243 193.7426 0001631  99.5152 260.6164 13.18687905 78204
ONEWEB-0426             
1 50498U 21132AF  23165.47144900  .00000044  00000+0  78010-4 0  9998
2 50498  87.9242 193.8518 0002709  96.8067 263.3374 13.18685038 78072
ONEWEB-0427             
1 50499U 21132AG  23166.11429333  .00000099  00000+0  21931-3 0  9996
2 50499  87.9246 193.7441 0002196 102.8427 257.2951 13.18685299 78194
ONEWEB-0429             
1 50500U 21132AH  23166.10162904  .00000076  00000+0  15927-3 0  9999
2 50500  87.9226 193.7246 0001970  92.0577 268.0781 13.18685223 78157
ONEWEB-0430             
1 50501U 21132AJ  23166.09108775  .00000077  00000+0  16247-3 0  9991
2 50501  87.9201 193.7365 0001748  93.3333 266.7999 13.18682442 78190
ONEWEB-0432             
1 50502U 21132AK  23166.12271092  .00000087  00000+0  18751-3 0  9992
2 50502  87.9245 193.7416 0002062  91.2016 268.9352 13.18684642 78169
ONEWEB-0440             
1 50503U 21132AL  23166.11007603  .00000016  00000+0  70477-5 0  9994
2 50503  87.9248 193.7543 0002770  81.9543 278.1903 13.18684043 78149
ONEWEB-0450             
1 50504U 21132AM  23166.10373416  .00000081  00000+0  17211-3 0  9999
2 50504  87.9247 193.7605 0001999  79.4442 280.6916 13.18683328 78170
